ADRAS-J                 
1 58992U 24034A   24099.17172658  .00003650  00000+0  34970-3 0  9996
2 58992  98.2064  69.0790 0042875 279.6981  79.9396 14.93160707  7416
